GLOBALSTAR M068         
1 32266U 07048D   25042.93337134 -.00000083  00000+0  11336-3 0  9992
2 32266  51.9908 324.0723 0000435 186.0633 219.4957 12.62814908801730
GLOBALSTAR M079         
1 37188U 10054A   25042.84880075 -.00000112  00000+0 -45696-4 0  9999
2 37188  52.0031 161.3372 0000866  88.8551  63.4264 12.62270682661305
GLOBALSTAR M074         
1 37189U 10054B   25042.78979046 -.00000113  00000+0 -52384-4 0  9993
2 37189  52.0006 160.8591 0001025 112.6567  10.7314 12.62262566661220
GLOBALSTAR M076         
1 37190U 10054C   25042.81906126 -.00000118  00000+0 -76625-4 0  9997
2 37190  52.0020 160.9268 0001173  97.3652  40.9637 12.62277554660942
GLOBALSTAR M077         
1 37191U 10054D   25042.46239412 -.00000083  00000+0  11755-3 0  9998
2 37191  52.0068 118.8366 0000687 117.3891 257.5416 12.62270726661275
GLOBALSTAR M075         
1 37192U 10054E   25042.83447192 -.00000109  00000+0 -30349-4 0  9997
2 37192  51.9924 203.2064 0001026  99.5224  49.1592 12.62272944660013
GLOBALSTAR M073         
1 37193U 10054F   25042.75648767 -.00000079  00000+0  14058-3 0  9993
2 37193  52.0056 117.1701 0000725 108.0637  44.3481 12.62263154661997
GLOBALSTAR M083         
1 37739U 11033A   25042.77350929 -.00000092  00000+0  63132-4 0  9992
2 37739  51.9860  66.0174 0000280  88.6325  82.7559 12.62271489631015
GLOBALSTAR M088         
1 37740U 11033B   25042.96422289 -.00000082  00000+0  11917-3 0  9996
2 37740  51.9758 331.0355 0000546  50.5804  28.0842 12.62273955626588
GLOBALSTAR M091         
1 37741U 11033C   25042.89885280 -.00000070  00000+0  18832-3 0  9993
2 37741  52.0000 294.5688 0000645  48.4574  32.1227 12.62264557627361
GLOBALSTAR M085         
1 37742U 11033D   25042.72676813 -.00000083  00000+0  11766-3 0  9999
2 37742  51.9845 246.2408 0000845  71.5188   6.6321 12.62265401627855
GLOBALSTAR M081         
1 37743U 11033E   25042.92452848 -.00000074  00000+0  16721-3 0  9998
2 37743  51.9935 248.3467 0001046  69.3475  68.8582 12.62260682628027
GLOBALSTAR M089         
1 37744U 11033F   25042.69931821 -.00000114  00000+0 -59305-4 0  9998
2 37744  51.9907 203.2829 0001196 100.1101 273.4616 12.62266177628842
GLOBALSTAR M084         
1 38040U 11080A   25042.82616907 -.00000080  00000+0  13531-3 0  9991
2 38040  52.0009  70.1165 0000715 117.5236  53.2385 12.62262075606833
GLOBALSTAR M080         
1 38041U 11080B   25042.80042174 -.00000081  00000+0  12647-3 0  9997
2 38041  52.0061  71.7617 0000897 103.1013  68.1261 12.62276897606954
GLOBALSTAR M082         
1 38042U 11080C   25042.86029730 -.00000096  00000+0  43410-4 0  9996
2 38042  52.0092  27.0081 0000182 294.4898  91.2002 12.62272956607672
GLOBALSTAR M092         
1 38043U 11080D   25042.62682260 -.00000093  00000+0  61171-4 0  9995
2 38043  52.0080 118.0900 0000730 125.8518  38.3812 12.62272884606092
GLOBALSTAR M090         
1 38044U 11080E   25042.43657344 -.00000098  00000+0  33635-4 0  9999
2 38044  51.9905  22.2694 0000209  51.1957  87.2278 12.62266607607739
GLOBALSTAR M086         
1 38045U 11080F   25042.70770650 -.00000092  00000+0  65726-4 0  9996
2 38045  51.9917  21.9847 0001160  52.0916 119.4355 12.62266516607712
GLOBALSTAR M097         
1 39072U 13005A   25042.85503627 -.00000070  00000+0  18995-3 0  9991
2 39072  52.0054 295.9606 0000861  57.5031 302.5919 12.62269823554983
GLOBALSTAR M093         
1 39073U 13005B   25042.90721007 -.00000065  00000+0  21633-3 0  9999
2 39073  51.9813 289.3010 0000859  56.5029 303.5919 12.62261431554948
GLOBALSTAR M094         
1 39074U 13005C   25042.82845103 -.00000109  00000+0 -26898-4 0  9994
2 39074  51.9937 203.7968 0000953  77.6355 282.4618 12.62268340556544
GLOBALSTAR M096         
1 39075U 13005D   25042.92088282 -.00000073  00000+0  17032-3 0  9991
2 39075  52.0051 251.9350 0000888  63.0860 297.0097 12.62268331555475
GLOBALSTAR M078         
1 39076U 13005E   25042.89379160 -.00000018  00000+0  47705-3 0  9995
2 39076  51.9899 336.6922 0000484 278.5213  81.5599 12.62272284554099
GLOBALSTAR M095         
1 39077U 13005F   25042.92068206 -.00000081  00000+0  12865-3 0  9995
2 39077  51.9824 333.8728 0000513 359.1431   0.9434 12.62266148553951
GLOBALSTAR M087         
1 52888U 22064A   25042.71384936 -.00000086  00000+0  97661-4 0  9996
2 52888  51.9789 115.9085 0000482 117.9235 242.1680 12.62268487129194
